{"type": "FeatureCollection", "features": [ {"type": "Feature", "properties": {"norad_id": 66559, "name": "STARLINK-35419", "group": "last-30-days", "lat": 42.12599251558774, "lon": -128.08544086205313, "alt_km": 409.5897837266848, "timestamp": "2025-12-11T13:55:00.914105+00:00", "meta": {"OBJECT_NAME": "STARLINK-35419", "OBJECT_ID": "2025-268C", "EPOCH": "2025-12-11T06:00:02.999808", "MEAN_MOTION": 15.50605812, "ECCENTRICITY": 0.00017832, "INCLINATION": 43.0001, "RA_OF_ASC_NODE": 129.9009, "ARG_OF_PERICENTER": 267.2845, "MEAN_ANOMALY": 149.612, "EPHEMERIS_TYPE": 0, "CLASSIFICATION_TYPE": "U", "NORAD_CAT_ID": 66559, "ELEMENT_SET_NO": 999, "REV_AT_EPOCH": 442, "BSTAR": -0.0012308578, "MEAN_MOTION_DOT": -0.00071961, "MEAN_MOTION_DDOT": 0}, "tle": {"line1": "1 66559U 25268C   25345.25003472 -.00071961  00000+0 -12309-2 0  9998", "line2": "2 66559  43.0001 129.9009 0001783 267.2845 149.6120 15.50605812  4420"}}, "geometry": {"type": "Point", "coordinates": [-128.08544086205313, 42.12599251558774]}}, {"type": "Feature", "properties": {"norad_id": 66560, "name": "STARLINK-35411", "group": "last-30-days", "lat": 41.77888808179594, "lon": -125.52526959863154, "alt_km": 409.5960029397929, "timestamp": "2025-12-11T13:55:00.914116+00:00", "meta": {"OBJECT_NAME": "STARLINK-35411", "OBJECT_ID": "2025-268D", "EPOCH": "2025-12-11T06:00:02.999808", "MEAN_MOTION": 15.50645007, "ECCENTRICITY": 0.00017241, "INCLINATION": 43.0001, "RA_OF_ASC_NODE": 129.8965, "ARG_OF_PERICENTER": 273.8564, "MEAN_ANOMALY": 144.9461, "EPHEMERIS_TYPE": 0, "CLASSIFICATION_TYPE": "U", "NORAD_CAT_ID": 66560, "ELEMENT_SET_NO": 999, "REV_AT_EPOCH": 442, "BSTAR": -0.0020310915, "MEAN_MOTION_DOT": -0.00117998, "MEAN_MOTION_DDOT": 0}, "tle": {"line1": "1 66560U 25268D   25345.25003472 -.00117998  00000+0 -20311-2 0  9993", "line2": "2 66560  43.0001 129.8965 0001724 273.8564 144.9461 15.50645007  4424"}}, "geometry": {"type": "Point", "coordinates": [-125.52526959863154, 41.77888808179594]}}, {"type": "Feature", "properties": {"norad_id": 66561, "name": "STARLINK-35305", "group": "last-30-days", "lat": 40.93331767405846, "lon": -120.58261866292983, "alt_km": 409.689525019905, "timestamp": "2025-12-11T13:55:00.914126+00:00", "meta": {"OBJECT_NAME": "STARLINK-35305", "OBJECT_ID": "2025-268E", "EPOCH": "2025-12-11T06:00:02.999808", "MEAN_MOTION": 15.50595045, "ECCENTRICITY": 0.00017099, "INCLINATION": 43.0001, "RA_OF_ASC_NODE": 129.8865, "ARG_OF_PERICENTER": 265.7592, "MEAN_ANOMALY": 156.8892, "EPHEMERIS_TYPE": 0, "CLASSIFICATION_TYPE": "U", "NORAD_CAT_ID": 66561, "ELEMENT_SET_NO": 999, "REV_AT_EPOCH": 438, "BSTAR": -0.00098156861, "MEAN_MOTION_DOT": -0.00057538, "MEAN_MOTION_DDOT": 0}, "tle": {"line1": "1 66561U 25268E   25345.25003472 -.00057538  00000+0 -98157-3 0  9991", "line2": "2 66561  43.0001 129.8865 0001709 265.7592 156.8892 15.50595045  4389"}}, "geometry": {"type": "Point", "coordinates": [-120.58261866292983, 40.93331767405846]}}, {"type": "Feature", "properties": {"norad_id": 66562, "name": "STARLINK-35579", "group": "last-30-days", "lat": 41.38539873715958, "lon": -123.0540156560606, "alt_km": 409.6015209389825, "timestamp": "2025-12-11T13:55:00.914135+00:00", "meta": {"OBJECT_NAME": "STARLINK-35579", "OBJECT_ID": "2025-268F", "EPOCH": "2025-12-11T06:00:02.999808", "MEAN_MOTION": 15.5059452, "ECCENTRICITY": 0.00016462, "INCLINATION": 43.0002, "RA_OF_ASC_NODE": 129.8908, "ARG_OF_PERICENTER": 269.2249, "MEAN_ANOMALY": 151.5055, "EPHEMERIS_TYPE": 0, "CLASSIFICATION_TYPE": "U", "NORAD_CAT_ID": 66562, "ELEMENT_SET_NO": 999, "REV_AT_EPOCH": 442, "BSTAR": -0.00092012552, "MEAN_MOTION_DOT": -0.00053981, "MEAN_MOTION_DDOT": 0}, "tle": {"line1": "1 66562U 25268F   25345.25003472 -.00053981  00000+0 -92013-3 0  9995", "line2": "2 66562  43.0002 129.8908 0001646 269.2249 151.5055 15.50594520  4422"}}, "geometry": {"type": "Point", "coordinates": [-123.0540156560606, 41.38539873715958]}}, {"type": "Feature", "properties": {"norad_id": 66563, "name": "STARLINK-35437", "group": "last-30-days", "lat": 40.4292381665392, "lon": -118.14795631332701, "alt_km": 409.70712163352346, "timestamp": "2025-12-11T13:55:00.914157+00:00", "meta": {"OBJECT_NAME": "STARLINK-35437", "OBJECT_ID": "2025-268G", "EPOCH": "2025-12-11T06:00:02.999808", "MEAN_MOTION": 15.50594245, "ECCENTRICITY": 0.00016471, "INCLINATION": 43.0001, "RA_OF_ASC_NODE": 129.8815, "ARG_OF_PERICENTER": 266.2104, "MEAN_ANOMALY": 158.3514, "EPHEMERIS_TYPE": 0, "CLASSIFICATION_TYPE": "U", "NORAD_CAT_ID": 66563, "ELEMENT_SET_NO": 999, "REV_AT_EPOCH": 442, "BSTAR": -0.0008646968, "MEAN_MOTION_DOT": -0.0005077, "MEAN_MOTION_DDOT": 0}, "tle": {"line1": "1 66563U 25268G   25345.25003472 -.00050770  00000+0 -86470-3 0  9999", "line2": "2 66563  43.0001 129.8815 0001647 266.2104 158.3514 15.50594245  4426"}}, "geometry": {"type": "Point", "coordinates": [-118.14795631332701, 40.4292381665392]}}, {"type": "Feature", "properties": {"norad_id": 66564, "name": "STARLINK-35358", "group": "last-30-days", "lat": 39.872871088810385, "lon": -115.7437091074244, "alt_km": 409.83765105130806, "timestamp": "2025-12-11T13:55:00.914172+00:00", "meta": {"OBJECT_NAME": "STARLINK-35358", "OBJECT_ID": "2025-268H", "EPOCH": "2025-12-11T06:00:02.999808", "MEAN_MOTION": 15.50603503, "ECCENTRICITY": 0.00017129, "INCLINATION": 43.0001, "RA_OF_ASC_NODE": 129.8768, "ARG_OF_PERICENTER": 267.1799, "MEAN_ANOMALY": 159.2995, "EPHEMERIS_TYPE": 0, "CLASSIFICATION_TYPE": "U", "NORAD_CAT_ID": 66564, "ELEMENT_SET_NO": 999, "REV_AT_EPOCH": 438, "BSTAR": -0.0011770667, "MEAN_MOTION_DOT": -0.00068852, "MEAN_MOTION_DDOT": 0}, "tle": {"line1": "1 66564U 25268H   25345.25003472 -.00068852  00000+0 -11771-2 0  9991", "line2": "2 66564  43.0001 129.8768 0001712 267.1799 159.2995 15.50603503  4383"}}, "geometry": {"type": "Point", "coordinates": [-115.7437091074244, 39.872871088810385]}}, {"type": "Feature", "properties": {"norad_id": 66565, "name": "STARLINK-35893", "group": "last-30-days", "lat": 39.26857089931431, "lon": -113.38403923567628, "alt_km": 409.8824680357229, "timestamp": "2025-12-11T13:55:00.914182+00:00", "meta": {"OBJECT_NAME": "STARLINK-35893", "OBJECT_ID": "2025-268J", "EPOCH": "2025-12-11T06:00:02.999808", "MEAN_MOTION": 15.50603554, "ECCENTRICITY": 0.00016818, "INCLINATION": 43.0002, "RA_OF_ASC_NODE": 129.8716, "ARG_OF_PERICENTER": 266.214, "MEAN_ANOMALY": 162.1824, "EPHEMERIS_TYPE": 0, "CLASSIFICATION_TYPE": "U", "NORAD_CAT_ID": 66565, "ELEMENT_SET_NO": 999, "REV_AT_EPOCH": 442, "BSTAR": -0.0011072928, "MEAN_MOTION_DOT": -0.00064824, "MEAN_MOTION_DDOT": 0}, "tle": {"line1": "1 66565U 25268J   25345.25003472 -.00064824  00000+0 -11073-2 0  9992", "line2": "2 66565  43.0002 129.8716 0001681 266.2140 162.1824 15.50603554  4428"}}, "geometry": {"type": "Point", "coordinates": [-113.38403923567628, 39.26857089931431]}}, {"type": "Feature", "properties": {"norad_id": 66566, "name": "STARLINK-35871", "group": "last-30-days", "lat": 38.61868571030217, "lon": -111.07117933050705, "alt_km": 409.92424720377676, "timestamp": "2025-12-11T13:55:00.914192+00:00", "meta": {"OBJECT_NAME": "STARLINK-35871", "OBJECT_ID": "2025-268K", "EPOCH": "2025-12-11T06:00:02.999808", "MEAN_MOTION": 15.50592732, "ECCENTRICITY": 0.0001604, "INCLINATION": 43.0002, "RA_OF_ASC_NODE": 129.8667, "ARG_OF_PERICENTER": 266.4357, "MEAN_ANOMALY": 163.8813, "EPHEMERIS_TYPE": 0, "CLASSIFICATION_TYPE": "U", "NORAD_CAT_ID": 66566, "ELEMENT_SET_NO": 999, "REV_AT_EPOCH": 442, "BSTAR": -0.0008436311, "MEAN_MOTION_DOT": -0.00049546, "MEAN_MOTION_DDOT": 0}, "tle": {"line1": "1 66566U 25268K   25345.25003472 -.00049546  00000+0 -84363-3 0  9990", "line2": "2 66566  43.0002 129.8667 0001604 266.4357 163.8813 15.50592732  4422"}}, "geometry": {"type": "Point", "coordinates": [-111.07117933050705, 38.61868571030217]}}, {"type": "Feature", "properties": {"norad_id": 66567, "name": "STARLINK-35825", "group": "last-30-days", "lat": 37.92316949326727, "lon": -108.79892651515812, "alt_km": 410.05568653365117, "timestamp": "2025-12-11T13:55:00.914202+00:00", "meta": {"OBJECT_NAME": "STARLINK-35825", "OBJECT_ID": "2025-268L", "EPOCH": "2025-12-11T06:00:02.999808", "MEAN_MOTION": 15.50595572, "ECCENTRICITY": 0.00016553, "INCLINATION": 43.0001, "RA_OF_ASC_NODE": 129.8622, "ARG_OF_PERICENTER": 267.4439, "MEAN_ANOMALY": 164.787, "EPHEMERIS_TYPE": 0, "CLASSIFICATION_TYPE": "U", "NORAD_CAT_ID": 66567, "ELEMENT_SET_NO": 999, "REV_AT_EPOCH": 442, "BSTAR": -0.00090039912, "MEAN_MOTION_DOT": -0.0005284, "MEAN_MOTION_DDOT": 0}, "tle": {"line1": "1 66567U 25268L   25345.25003472 -.00052840  00000+0 -90040-3 0  9991", "line2": "2 66567  43.0001 129.8622 0001655 267.4439 164.7870 15.50595572  4429"}}, "geometry": {"type": "Point", "coordinates": [-108.79892651515812, 37.92316949326727]}}, {"type": "Feature", "properties": {"norad_id": 66568, "name": "STARLINK-35803", "group": "last-30-days", "lat": 37.1841874719068, "lon": -106.56965200378924, "alt_km": 410.1041531332503, "timestamp": "2025-12-11T13:55:00.914212+00:00", "meta": {"OBJECT_NAME": "STARLINK-35803", "OBJECT_ID": "2025-268M", "EPOCH": "2025-12-11T06:00:02.999808", "MEAN_MOTION": 15.5059949, "ECCENTRICITY": 0.00015885, "INCLINATION": 43.0001, "RA_OF_ASC_NODE": 129.8571, "ARG_OF_PERICENTER": 266.2291, "MEAN_ANOMALY": 167.9168, "EPHEMERIS_TYPE": 0, "CLASSIFICATION_TYPE": "U", "NORAD_CAT_ID": 66568, "ELEMENT_SET_NO": 999, "REV_AT_EPOCH": 442, "BSTAR": -0.00099968108, "MEAN_MOTION_DOT": -0.00058594, "MEAN_MOTION_DDOT": 0}, "tle": {"line1": "1 66568U 25268M   25345.25003472 -.00058594  00000+0 -99968-3 0  9992", "line2": "2 66568  43.0001 129.8571 0001588 266.2291 167.9168 15.50599490  4429"}}, "geometry": {"type": "Point", "coordinates": [-106.56965200378924, 37.1841874719068]}}]}